start=new Date('2022-01-08T00:00:00.000Z').valueOf();
sats=[{"INCLINATION":"53.0006","FILE":"3266804","GP_ID":"193422695","TLE_LINE1":"1 44729U 19074S   22007.88751632  .00000872  00000-0  73044-4 0  9997","MEAN_MOTION":"15.08790631","MEAN_ELEMENT_THEORY":"SGP4","SITE":"AFETR","OBJECT_ID":"2019-074S","EPHEMERIS_TYPE":"0","ARG_OF_PERICENTER":"106.5899","OBJECT_TYPE":"PAYLOAD","DECAY_DATE":null,"MEAN_MOTION_DOT":"0.00000872","TLE_LINE2":"2 44729  53.0006 193.8654 0003107 106.5899 253.5432 15.08790631119136","PERIAPSIS":"537.747","EPOCH":"2022-01-07T21:18:01.410048","CLASSIFICATION_TYPE":"U","APOAPSIS":"542.046","CENTER_NAME":"EARTH","LAUNCH_DATE":"2019-11-11","PERIOD":"95.441","REF_FRAME":"TEME","COUNTRY_CODE":"US","ECCENTRICITY":"0.00031070","OBJECT_NAME":"STARLINK-1024","REV_AT_EPOCH":"11913","RA_OF_ASC_NODE":"193.8654","MEAN_ANOMALY":"253.5432","RCS_SIZE":"LARGE","ELEMENT_SET_NO":"999","MEAN_MOTION_DDOT":"0.0000000000000","TIME_SYSTEM":"UTC","SEMIMAJOR_AXIS":"6918.031","BSTAR":"0.00007304400000","NORAD_CAT_ID":"44729"},{"REF_FRAME":"TEME","COUNTRY_CODE":"US","ECCENTRICITY":"0.00024260","OBJECT_NAME":"STARLINK-1026","EPOCH":"2022-01-07T19:42:28.656864","CLASSIFICATION_TYPE":"U","APOAPSIS":"548.922","CENTER_NAME":"EARTH","LAUNCH_DATE":"2019-11-11","PERIOD":"95.593","TIME_SYSTEM":"UTC","MEAN_MOTION_DDOT":"0.0000000000000","BSTAR":"-0.00008680700000","SEMIMAJOR_AXIS":"6925.376","NORAD_CAT_ID":"44731","REV_AT_EPOCH":"11936","RA_OF_ASC_NODE":"178.5482","MEAN_ANOMALY":"275.2340","RCS_SIZE":"LARGE","ELEMENT_SET_NO":"999","MEAN_MOTION":"15.06390912","MEAN_ELEMENT_THEORY":"SGP4","SITE":"AFETR","OBJECT_ID":"2019-074U","EPHEMERIS_TYPE":"0","INCLINATION":"53.0526","FILE":"3266804","GP_ID":"193423943","TLE_LINE1":"1 44731U 19074U   22007.82116501 -.00001574  00000-0 -86807-4 0  9997","MEAN_MOTION_DOT":"-0.00001574","PERIAPSIS":"545.561","TLE_LINE2":"2 44731  53.0526 178.5482 0002426  84.8926 275.2340 15.06390912119367","ARG_OF_PERICENTER":"84.8926","OBJECT_TYPE":"PAYLOAD","DECAY_DATE":null},{"ARG_OF_PERICENTER":"77.6781","OBJECT_TYPE":"PAYLOAD","DECAY_DATE":null,"MEAN_MOTION_DOT":"0.00000386","PERIAPSIS":"545.835","TLE_LINE2":"2 44732  53.0528 198.6105 0002027  77.6781 282.4434 15.06391931119086","INCLINATION":"53.0528","TLE_LINE1":"1 44732U 19074V   22007.80827506  .00000386  00000-0  44854-4 0  9994","FILE":"3266804","GP_ID":"193423683","MEAN_ELEMENT_THEORY":"SGP4","MEAN_MOTION":"15.06391931","EPHEMERIS_TYPE":"0","SITE":"AFETR","OBJECT_ID":"2019-074V","RCS_SIZE":"LARGE","REV_AT_EPOCH":"11908","MEAN_ANOMALY":"282.4434","RA_OF_ASC_NODE":"198.6105","ELEMENT_SET_NO":"999","SEMIMAJOR_AXIS":"6925.373","BSTAR":"0.00004485400000","NORAD_CAT_ID":"44732","MEAN_MOTION_DDOT":"0.0000000000000","TIME_SYSTEM":"UTC","CLASSIFICATION_TYPE":"U","APOAPSIS":"548.642","EPOCH":"2022-01-07T19:23:54.965184","LAUNCH_DATE":"2019-11-11","PERIOD":"95.593","CENTER_NAME":"EARTH","REF_FRAME":"TEME","COUNTRY_CODE":"US","ECCENTRICITY":"0.00020270","OBJECT_NAME":"STARLINK-1027"},{"CENTER_NAME":"EARTH","LAUNCH_DATE":"2019-11-11","PERIOD":"95.593","EPOCH":"2022-01-07T17:45:44.091360","APOAPSIS":"548.846","CLASSIFICATION_TYPE":"U","OBJECT_NAME":"STARLINK-1028","COUNTRY_CODE":"US","REF_FRAME":"TEME","ECCENTRICITY":"0.00023030","ELEMENT_SET_NO":"999","MEAN_ANOMALY":"276.8736","RA_OF_ASC_NODE":"178.9233","REV_AT_EPOCH":"11935","RCS_SIZE":"LARGE","MEAN_MOTION_DDOT":"0.0000000000000","TIME_SYSTEM":"UTC","NORAD_CAT_ID":"44733","BSTAR":"0.00004594700000","SEMIMAJOR_AXIS":"6925.386","GP_ID":"193422945","FILE":"3266804","TLE_LINE1":"1 44733U 19074W   22007.74009365  .00000402  00000-0  45947-4 0  9996","INCLINATION":"53.0542","OBJECT_ID":"2019-074W","SITE":"AFETR","EPHEMERIS_TYPE":"0","MEAN_MOTION":"15.06387623","MEAN_ELEMENT_THEORY":"SGP4","DECAY_DATE":null,"OBJECT_TYPE":"PAYLOAD","ARG_OF_PERICENTER":"83.2515","PERIAPSIS":"545.657","TLE_LINE2":"2 44733  53.0542 178.9233 0002303  83.2515 276.8736 15.06387623119356","MEAN_MOTION_DOT":"0.00000402"},{"COUNTRY_CODE":"US","ECCENTRICITY":"0.00013160","REF_FRAME":"TEME","OBJECT_NAME":"STARLINK-1029","EPOCH":"2022-01-07T13:20:18.713760","APOAPSIS":"548.146","CLASSIFICATION_TYPE":"U","CENTER_NAME":"EARTH","PERIOD":"95.593","LAUNCH_DATE":"2019-11-11","TIME_SYSTEM":"UTC","MEAN_MOTION_DDOT":"0.0000000000000","NORAD_CAT_ID":"44734","SEMIMAJOR_AXIS":"6925.369","BSTAR":"0.00009428400000","MEAN_ANOMALY":"270.6074","RA_OF_ASC_NODE":"99.7308","REV_AT_EPOCH":"12042","RCS_SIZE":"LARGE","ELEMENT_SET_NO":"999","MEAN_MOTION":"15.06393272","MEAN_ELEMENT_THEORY":"SGP4","OBJECT_ID":"2019-074X","SITE":"AFETR","EPHEMERIS_TYPE":"0","INCLINATION":"53.0566","GP_ID":"193392450","FILE":"3266507","TLE_LINE1":"1 44734U 19074X   22007.55577215  .00001123  00000-0  94284-4 0  9999","PERIAPSIS":"546.323","TLE_LINE2":"2 44734  53.0566  99.7308 0001316  89.5066 270.6074 15.06393272120423","MEAN_MOTION_DOT":"0.00001123","ARG_OF_PERICENTER":"89.5066","DECAY_DATE":null,"OBJECT_TYPE":"PAYLOAD"},{"OBJECT_NAME":"STARLINK-1030","COUNTRY_CODE":"US","REF_FRAME":"TEME","ECCENTRICITY":"0.00022010","CENTER_NAME":"EARTH","PERIOD":"95.593","LAUNCH_DATE":"2019-11-11","EPOCH":"2022-01-07T19:34:32.047680","CLASSIFICATION_TYPE":"U","APOAPSIS":"548.768","TIME_SYSTEM":"UTC","MEAN_MOTION_DDOT":"0.0000000000000","BSTAR":"0.00003850400000","SEMIMAJOR_AXIS":"6925.378","NORAD_CAT_ID":"44735","ELEMENT_SET_NO":"999","REV_AT_EPOCH":"11908","MEAN_ANOMALY":"282.7671","RA_OF_ASC_NODE":"198.5822","RCS_SIZE":"LARGE","SITE":"AFETR","OBJECT_ID":"2019-074Y","EPHEMERIS_TYPE":"0","MEAN_MOTION":"15.06390246","MEAN_ELEMENT_THEORY":"SGP4","FILE":"3266804","GP_ID":"193423444","TLE_LINE1":"1 44735U 19074Y   22007.81564870  .00000292  00000-0  38504-4 0  9991","INCLINATION":"53.0520","MEAN_MOTION_DOT":"0.00000292","PERIAPSIS":"545.719","TLE_LINE2":"2 44735  53.0520 198.5822 0002201  77.3564 282.7671 15.06390246119080","OBJECT_TYPE":"PAYLOAD","DECAY_DATE":null,"ARG_OF_PERICENTER":"77.3564"},{"DECAY_DATE":null,"OBJECT_TYPE":"PAYLOAD","ARG_OF_PERICENTER":"76.6728","TLE_LINE2":"2 44736  53.0537 198.2209 0001963  76.6728 283.4480 15.06392473119106","PERIAPSIS":"545.877","MEAN_MOTION_DOT":"0.00000396","GP_ID":"193424183","FILE":"3266804","TLE_LINE1":"1 44736U 19074Z   22007.89673449  .00000396  00000-0  45483-4 0  9992","INCLINATION":"53.0537","OBJECT_ID":"2019-074Z","SITE":"AFETR","EPHEMERIS_TYPE":"0","MEAN_MOTION":"15.06392473","MEAN_ELEMENT_THEORY":"SGP4","ELEMENT_SET_NO":"999","MEAN_ANOMALY":"283.4480","RA_OF_ASC_NODE":"198.2209","REV_AT_EPOCH":"11910","RCS_SIZE":"LARGE","TIME_SYSTEM":"UTC","MEAN_MOTION_DDOT":"0.0000000000000","NORAD_CAT_ID":"44736","SEMIMAJOR_AXIS":"6925.372","BSTAR":"0.00004548300000","CENTER_NAME":"EARTH","LAUNCH_DATE":"2019-11-11","PERIOD":"95.593","EPOCH":"2022-01-07T21:31:17.859936","CLASSIFICATION_TYPE":"U","APOAPSIS":"548.596","OBJECT_NAME":"STARLINK-1031","COUNTRY_CODE":"US","REF_FRAME":"TEME","ECCENTRICITY":"0.00019630"},{"TIME_SYSTEM":"UTC","MEAN_MOTION_DDOT":"0.0000000000000","SEMIMAJOR_AXIS":"6925.336","BSTAR":"0.00004624000000","NORAD_CAT_ID":"44737","REV_AT_EPOCH":"11909","RA_OF_ASC_NODE":"198.4703","MEAN_ANOMALY":"290.0505","RCS_SIZE":"LARGE","ELEMENT_SET_NO":"999","REF_FRAME":"TEME","COUNTRY_CODE":"US","ECCENTRICITY":"0.00021820","OBJECT_NAME":"STARLINK-1032","EPOCH":"2022-01-07T20:11:39.905376","CLASSIFICATION_TYPE":"U","APOAPSIS":"548.713","CENTER_NAME":"EARTH","LAUNCH_DATE":"2019-11-11","PERIOD":"95.592","MEAN_MOTION_DOT":"0.00000407","PERIAPSIS":"545.690","TLE_LINE2":"2 44737  53.0536 198.4703 0002182  70.0719 290.0505 15.06403948119099","ARG_OF_PERICENTER":"70.0719","OBJECT_TYPE":"PAYLOAD","DECAY_DATE":null,"MEAN_MOTION":"15.06403948","MEAN_ELEMENT_THEORY":"SGP4","SITE":"AFETR","OBJECT_ID":"2019-074AA","EPHEMERIS_TYPE":"0","INCLINATION":"53.0536","FILE":"3266804","GP_ID":"193422446","TLE_LINE1":"1 44737U 19074AA  22007.84143409  .00000407  00000-0  46240-4 0  9991"},{"ELEMENT_SET_NO":"999","RCS_SIZE":"LARGE","REV_AT_EPOCH":"11908","RA_OF_ASC_NODE":"198.5158","MEAN_ANOMALY":"279.7166","SEMIMAJOR_AXIS":"6925.376","BSTAR":"0.00004328700000","NORAD_CAT_ID":"44738","TIME_SYSTEM":"UTC","MEAN_MOTION_DDOT":"0.0000000000000","PERIOD":"95.593","LAUNCH_DATE":"2019-11-11","CENTER_NAME":"EARTH","CLASSIFICATION_TYPE":"U","APOAPSIS":"548.644","EPOCH":"2022-01-07T19:50:27.482208","OBJECT_NAME":"STARLINK-1033","ECCENTRICITY":"0.00020250","COUNTRY_CODE":"US","REF_FRAME":"TEME","OBJECT_TYPE":"PAYLOAD","DECAY_DATE":null,"ARG_OF_PERICENTER":"80.4052","MEAN_MOTION_DOT":"0.00000363","TLE_LINE2":"2 44738  53.0550 198.5158 0002025  80.4052 279.7166 15.06390943119088","PERIAPSIS":"545.839","TLE_LINE1":"1 44738U 19074AB  22007.82670697  .00000363  00000-0  43287-4 0  9993","FILE":"3266804","GP_ID":"193422696","INCLINATION":"53.0550","EPHEMERIS_TYPE":"0","SITE":"AFETR","OBJECT_ID":"2019-074AB","MEAN_ELEMENT_THEORY":"SGP4","MEAN_MOTION":"15.06390943"},{"PERIOD":"95.442","LAUNCH_DATE":"2019-11-11","CENTER_NAME":"EARTH","CLASSIFICATION_TYPE":"U","APOAPSIS":"541.408","EPOCH":"2022-01-07T20:34:10.196544","OBJECT_NAME":"STARLINK-1034","COUNTRY_CODE":"US","REF_FRAME":"TEME","ECCENTRICITY":"0.00021050","ELEMENT_SET_NO":"999","RCS_SIZE":"LARGE","REV_AT_EPOCH":"11911","MEAN_ANOMALY":"247.4198","RA_OF_ASC_NODE":"194.4413","BSTAR":"0.00021925000000","SEMIMAJOR_AXIS":"6918.086","NORAD_CAT_ID":"44739","MEAN_MOTION_DDOT":"0.0000000000000","TIME_SYSTEM":"UTC","TLE_LINE1":"1 44739U 19074AC  22007.85706246  .00003197  00000-0  21925-3 0  9999","FILE":"3266804","GP_ID":"193423944","INCLINATION":"52.9972","EPHEMERIS_TYPE":"0","SITE":"AFETR","OBJECT_ID":"2019-074AC","MEAN_ELEMENT_THEORY":"SGP4","MEAN_MOTION":"15.08772583","OBJECT_TYPE":"PAYLOAD","DECAY_DATE":null,"ARG_OF_PERICENTER":"112.7014","MEAN_MOTION_DOT":"0.00003197","TLE_LINE2":"2 44739  52.9972 194.4413 0002105 112.7014 247.4198 15.08772583119117","PERIAPSIS":"538.495"}];
